[{"OBJECT_NAME":"STARLINK-4467","OBJECT_ID":"2022-105AQ","EPOCH":"2026-03-09T15:07:27.381792","MEAN_MOTION":15.0125641,"ECCENTRICITY":0.0002534,"INCLINATION":97.6031,"RA_OF_ASC_NODE":310.2032,"ARG_OF_PERICENTER":167.742,"MEAN_ANOMALY":192.3866,"EPHEMERIS_TYPE":0,"CLASSIFICATION_TYPE":"U","NORAD_CAT_ID":53686,"ELEMENT_SET_NO":999,"REV_AT_EPOCH":19323,"BSTAR":0.00051511,"MEAN_MOTION_DOT":6.564e-5,"MEAN_MOTION_DDOT":0},{"OBJECT_NAME":"FENGYUN 1C DEB","OBJECT_ID":"1999-025CCU","EPOCH":"2026-03-09T04:16:51.250080","MEAN_MOTION":14.7380712,"ECCENTRICITY":0.02770831,"INCLINATION":98.1363,"RA_OF_ASC_NODE":145.1449,"ARG_OF_PERICENTER":173.2574,"MEAN_ANOMALY":217.8544,"EPHEMERIS_TYPE":0,"CLASSIFICATION_TYPE":"U","NORAD_CAT_ID":31686,"ELEMENT_SET_NO":999,"REV_AT_EPOCH":99091,"BSTAR":0.001175879,"MEAN_MOTION_DOT":0.00014291,"MEAN_MOTION_DDOT":0}]
